AMOS-17                 
1 44479U 19050A   26065.22840190  .00000104  00000+0  00000+0 0  9991
2 44479   0.0440 291.8337 0001434  54.9058 276.4018  1.00272127 24156
