[{"OBJECT_NAME":"AMOS-17","OBJECT_ID":"2019-050A","EPOCH":"2026-03-06T05:28:53.924160","MEAN_MOTION":1.00272127,"ECCENTRICITY":0.00014341,"INCLINATION":0.044,"RA_OF_ASC_NODE":291.8337,"ARG_OF_PERICENTER":54.9058,"MEAN_ANOMALY":276.4018,"EPHEMERIS_TYPE":0,"CLASSIFICATION_TYPE":"U","NORAD_CAT_ID":44479,"ELEMENT_SET_NO":999,"REV_AT_EPOCH":2415,"BSTAR":0,"MEAN_MOTION_DOT":1.04e-6,"MEAN_MOTION_DDOT":0}]
